#aV2022 11  6  0  0  0.00000000     288 DD+AD WGS84 FIT  NGA
## 2235      0.00000000   300.00000000 59889 0.0000000000000
+   32     1  2  3  4  5  6  7  8  9 10 11 12 13 14 15 16 17
+         18 19 20 21 22 23 24 25 26 27 28 29 30 31 32  0  0
+          0  0  0  0  0  0  0  0  0  0  0  0  0  0  0  0  0
+          0  0  0  0  0  0  0  0  0  0  0  0  0  0  0  0  0
+          0  0  0  0  0  0  0  0  0  0  0  0  0  0  0  0  0
++         2  2  2  2  2  2  2  2  2  2  2  2  2  2  2  2  2
++         2  2  2  2  2  2  2  2  2  2  2  2  2  2  2  0  0
++         0  0  0  0  0  0  0  0  0  0  0  0  0  0  0  0  0
++         0  0  0  0  0  0  0  0  0  0  0  0  0  0  0  0  0
++         0  0  0  0  0  0  0  0  0  0  0  0  0  0  0  0  0
%c cc cc ccc ccc cccc cccc cccc cccc ccccc ccccc ccccc ccccc
%c cc cc ccc ccc cccc cccc cccc cccc ccccc ccccc ccccc ccccc
%f  0.0000000  0.000000000  0.00000000000  0.000000000000000
%f  0.0000000  0.000000000  0.00000000000  0.000000000000000
%i    0    0    0    0      0      0      0      0         0
%i    0    0    0    0      0      0      0      0         0
/*      NGA, ST. LOUIS,MO.                                  
/*   EPHEMERIS COMPUTED FROM 2 DAYS OF DATA                 
/*   EPOCHA v8 SMOOTHER                                     
/*   G2139 IERS2010 SATIGS SATAPC                           
*  2022 11  6  2 45  0.00000000
P  1  13995.769471 -21933.999719   4012.599201    256.113078                    
V  1   -517.304078   5920.191160  32060.813274     -0.057731                    
P  2 -11047.888059  24101.023468  -2229.117909   -639.152093                    
V  2  -1023.255184  -4249.365214 -31608.122957      0.017769                    
P  3  17519.626291 -12088.635359 -15943.915942   -370.912897                    
V  3  20091.773256    185.929452  22210.332691     -0.025597                    
P  4   6699.302990 -15837.905026 -20213.117770    -91.379529                    
V  4  14608.171454  21166.879415 -11843.205390      0.065220                    
P  5 -25447.266238   6199.374027   4600.714321   -103.199237                    
V  5  -6302.863797  -1892.744272 -31013.030144     -0.014574                    
P  6 -10759.539742 -10596.954538 -21773.329956    511.024987                    
V  6  12615.131889 -24705.954471   5845.634407      0.097240                    
P  7   3703.014479 -24148.015797  10207.943862    290.791250                    
V  7   8246.366253  -9925.182126 -28097.979489     -0.044069                    
P  8  14311.495641  -5884.689103  21576.115468    -92.417985                    
V  8  15783.214023  22470.802850  -3971.658626     -0.018372                    
P  9  -4109.734362 -22460.679031 -13611.858548   -272.868853                    
V  9  11860.874165  12653.505808 -24647.890037      0.055337                    
P 10  14779.996162  11754.221082  18960.045869    -10.671968                    
V 10 -23457.329746   2768.583770  16400.180216     -0.016146                    
P 11 -16947.946402   1464.414757 -20382.754550    -35.453839                    
V 11  11641.971442 -23147.946521 -11376.909935     -0.055058                    
P 12 -18667.469057  10839.796971 -15674.639689   -300.873392                    
V 12 -19449.363840  -1772.255539  22420.936360     -0.044846                    
P 13 -16974.576543  -3244.959815  20046.736258    419.454550                    
V 13 -10574.720477 -23514.987669 -12469.178397      0.068753                    
P 14 -12230.863402 -13417.095558  19431.916574    -86.705917                    
V 14  24587.362668  -2244.380513  13817.609559      0.047773                    
P 15 -13753.811597   7933.678922  20869.077413    -14.806609                    
V 15 -18154.683735 -20835.423522  -3675.994026      0.031858                    
P 16  26807.550318    642.605466   -301.135276   -526.848327                    
V 16    -75.496393   2218.004070 -31592.271224     -0.001287                    
P 17 -12494.698877 -23359.911396   1671.897600    675.403278                    
V 17   2837.566905    166.882678  32058.358664      0.033261                    
P 18  -3207.528001  23635.091218  11532.992067    -11.530625                    
V 18  -8588.193209  12098.768624 -27317.788299     -0.138274                    
P 19 -17150.680405 -18058.067213  -9828.393120    233.561119                    
V 19  -4021.921141 -11499.879484  28581.947656      0.050746                    
P 20 -24991.468547   -409.334028  -8623.276932    472.443834                    
V 20  10007.497109  -5702.259752 -28908.850825     -0.030550                    
P 21  16289.551997 -15983.322578  13523.779890    156.645161                    
V 21  -3538.299273  16302.616254  25385.508215     -0.007599                    
P 22  17936.990844  15905.101789 -11203.223277    359.228220                    
V 22   5196.188945  14065.803922  27095.041185      0.070790                    
P 23   2849.757432  14760.725125  21892.329263     -1.124179                    
V 23 -27630.403304   2877.917175   1522.669456      0.000910                    
P 24 -14425.761970  20263.175228   8357.002729     70.837560                    
V 24    518.813693 -11835.497620  28886.615443     -0.155594                    
P 25  -7201.876631  15294.414730 -20715.021808    389.784174                    
V 25 -25727.413825   1079.792000  10157.081552      0.037832                    
P 26  23895.762091   4932.583924 -10974.068491    234.916593                    
V 26 -13232.984363   4632.618412 -26631.393089      0.011944                    
P 27  18919.770955   6549.054800  17433.226444    184.178305                    
V 27  11489.779440  19268.191674 -19073.625207     -0.079700                    
P 28 -20887.978545   8291.878475  14451.605792    318.633192                    
V 28  10264.391313 -14427.924939  24195.336185     -0.055520                    
P 29   1023.881575  21949.912341 -14901.685455   -565.128678                    
V 29 -10840.988406 -15508.337518 -23731.873963     -0.027743                    
P 30  -5627.274141 -18566.068087  18120.963689   -536.928091                    
V 30  12118.235689 -19658.000287 -16713.802808      0.002669                    
P 31  12434.241364   9324.900193 -21656.891375   -199.249612                    
V 31 -12864.627232  23969.265451   3411.439637     -0.012346                    
P 32  15852.614632  21400.595706  -1255.508625   -286.841995                    
V 32  -1242.743741   3003.695339  31518.322789     -0.123883                    
EOF
